{
  "type": "FeatureCollection",
  "features": [
    {
      "type": "Feature",
      "properties": {
        "norad_id": 66549,
        "name": "SHIJIAN-28 (SJ-28)",
        "group": "last-30-days",
        "lat": 4.741549801277944,
        "lon": 23.289940353235377,
        "alt_km": 35783.29366932446,
        "timestamp": "2025-12-24T11:32:58.716341+00:00",
        "meta_object_name": "SHIJIAN-28 (SJ-28)",
        "meta_object_id": "2025-277A",
        "meta_epoch": "2025-12-23T23:02:51.684288",
        "meta_mean_motion": 1.00265866,
        "meta_eccentricity": 0.0001012,
        "meta_inclination": 4.9911,
        "meta_ra_of_asc_node": 274.7803,
        "meta_arg_of_pericenter": 131.4986,
        "meta_mean_anomaly": 148.9332,
        "meta_ephemeris_type": 0,
        "meta_classification_type": "U",
        "meta_norad_cat_id": 66549,
        "meta_element_set_no": 999,
        "meta_rev_at_epoch": 39,
        "meta_bstar": 0,
        "meta_mean_motion_dot": -3.37e-06,
        "meta_mean_motion_ddot": 0,
        "tle_line1": "1 66549U 25277A   25357.96032042 -.00000337  00000+0  00000+0 0  9993",
        "tle_line2": "2 66549   4.9911 274.7803 0001012 131.4986 148.9332  1.00265866   399"
      },
      "geometry": {
        "type": "Point",
        "coordinates": [
          23.289940353235377,
          4.741549801277944
        ]
      }
    },
    {
      "type": "Feature",
      "properties": {
        "norad_id": 66550,
        "name": "CZ-7A R/B",
        "group": "last-30-days",
        "lat": 5.888108275954651,
        "lon": -73.11344142285847,
        "alt_km": 23258.688719824826,
        "timestamp": "2025-12-24T11:32:58.716397+00:00",
        "meta_object_name": "CZ-7A R/B",
        "meta_object_id": "2025-277B",
        "meta_epoch": "2025-12-23T05:53:12.433056",
        "meta_mean_motion": 3.27661077,
        "meta_eccentricity": 0.66094342,
        "meta_inclination": 14.3426,
        "meta_ra_of_asc_node": 263.9223,
        "meta_arg_of_pericenter": 200.4471,
        "meta_mean_anomaly": 110.5172,
        "meta_ephemeris_type": 0,
        "meta_classification_type": "U",
        "meta_norad_cat_id": 66550,
        "meta_element_set_no": 999,
        "meta_rev_at_epoch": 65,
        "meta_bstar": 0.0068493476,
        "meta_mean_motion_dot": 0.10979967,
        "meta_mean_motion_ddot": 1.8894821e-05,
        "tle_line1": "1 66550U 25277B   25357.24528279  .10979967  18895-4  68493-2 0  9991",
        "tle_line2": "2 66550  14.3426 263.9223 6609434 200.4471 110.5172  3.27661077   658"
      },
      "geometry": {
        "type": "Point",
        "coordinates": [
          -73.11344142285847,
          5.888108275954651
        ]
      }
    },
    {
      "type": "Feature",
      "properties": {
        "norad_id": 66554,
        "name": "GLOBAL-33",
        "group": "last-30-days",
        "lat": 41.49407520742268,
        "lon": 68.4232452368476,
        "alt_km": 464.0489310059829,
        "timestamp": "2025-12-24T11:32:58.716425+00:00",
        "meta_object_name": "GLOBAL-33",
        "meta_object_id": "2025-267A",
        "meta_epoch": "2025-12-23T22:40:26.978016",
        "meta_mean_motion": 15.31714387,
        "meta_eccentricity": 0.0004481,
        "meta_inclination": 42.0211,
        "meta_ra_of_asc_node": 352.304,
        "meta_arg_of_pericenter": 170.013,
        "meta_mean_anomaly": 190.0798,
        "meta_ephemeris_type": 0,
        "meta_classification_type": "U",
        "meta_norad_cat_id": 66554,
        "meta_element_set_no": 999,
        "meta_rev_at_epoch": 512,
        "meta_bstar": 0.00043448475,
        "meta_mean_motion_dot": 0.00013368,
        "meta_mean_motion_ddot": 0,
        "tle_line1": "1 66554U 25267A   25357.94475669  .00013368  00000+0  43448-3 0  9996",
        "tle_line2": "2 66554  42.0211 352.3040 0004481 170.0130 190.0798 15.31714387  5126"
      },
      "geometry": {
        "type": "Point",
        "coordinates": [
          68.4232452368476,
          41.49407520742268
        ]
      }
    },
    {
      "type": "Feature",
      "properties": {
        "norad_id": 66557,
        "name": "STARLINK-35699",
        "group": "last-30-days",
        "lat": -28.967684905959132,
        "lon": -91.08459568110116,
        "alt_km": 438.09424372331796,
        "timestamp": "2025-12-24T11:32:58.716439+00:00",
        "meta_object_name": "STARLINK-35699",
        "meta_object_id": "2025-268A",
        "meta_epoch": "2025-12-24T04:00:01.998720",
        "meta_mean_motion": 15.44826161,
        "meta_eccentricity": 9.03e-05,
        "meta_inclination": 43.0005,
        "meta_ra_of_asc_node": 54.2933,
        "meta_arg_of_pericenter": 278.927,
        "meta_mean_anomaly": 355.6593,
        "meta_ephemeris_type": 0,
        "meta_classification_type": "U",
        "meta_norad_cat_id": 66557,
        "meta_element_set_no": 999,
        "meta_rev_at_epoch": 612,
        "meta_bstar": -0.045215,
        "meta_mean_motion_dot": -0.01941762,
        "meta_mean_motion_ddot": 0,
        "tle_line1": "1 66557U 25268A   25358.16668980 -.01941762  00000+0 -45215-1 0  9998",
        "tle_line2": "2 66557  43.0005  54.2933 0000903 278.9270 355.6593 15.44826161  6129"
      },
      "geometry": {
        "type": "Point",
        "coordinates": [
          -91.08459568110116,
          -28.967684905959132
        ]
      }
    },
    {
      "type": "Feature",
      "properties": {
        "norad_id": 66558,
        "name": "STARLINK-35695",
        "group": "last-30-days",
        "lat": -34.20780532010233,
        "lon": -80.70853313223157,
        "alt_km": 435.78201209188956,
        "timestamp": "2025-12-24T11:32:58.716453+00:00",
        "meta_object_name": "STARLINK-35695",
        "meta_object_id": "2025-268B",
        "meta_epoch": "2025-12-24T04:00:01.998720",
        "meta_mean_motion": 15.45734955,
        "meta_eccentricity": 8.75e-05,
        "meta_inclination": 43.0003,
        "meta_ra_of_asc_node": 54.2714,
        "meta_arg_of_pericenter": 271.5885,
        "meta_mean_anomaly": 12.293,
        "meta_ephemeris_type": 0,
        "meta_classification_type": "U",
        "meta_norad_cat_id": 66558,
        "meta_element_set_no": 999,
        "meta_rev_at_epoch": 601,
        "meta_bstar": -0.045767,
        "meta_mean_motion_dot": -0.02018801,
        "meta_mean_motion_ddot": 0,
        "tle_line1": "1 66558U 25268B   25358.16668980 -.02018801  00000+0 -45767-1 0  9991",
        "tle_line2": "2 66558  43.0003  54.2714 0000875 271.5885  12.2930 15.45734955  6013"
      },
      "geometry": {
        "type": "Point",
        "coordinates": [
          -80.70853313223157,
          -34.20780532010233
        ]
      }
    },
    {
      "type": "Feature",
      "properties": {
        "norad_id": 66559,
        "name": "STARLINK-35419",
        "group": "last-30-days",
        "lat": -42.634897010524725,
        "lon": -28.77060539262334,
        "alt_km": 420.8340087585466,
        "timestamp": "2025-12-24T11:32:58.716465+00:00",
        "meta_object_name": "STARLINK-35419",
        "meta_object_id": "2025-268C",
        "meta_epoch": "2025-12-24T04:00:01.998720",
        "meta_mean_motion": 15.50863566,
        "meta_eccentricity": 0.0001138,
        "meta_inclination": 42.9999,
        "meta_ra_of_asc_node": 54.1867,
        "meta_arg_of_pericenter": 263.4612,
        "meta_mean_anomaly": 55.6224,
        "meta_ephemeris_type": 0,
        "meta_classification_type": "U",
        "meta_norad_cat_id": 66559,
        "meta_element_set_no": 999,
        "meta_rev_at_epoch": 607,
        "meta_bstar": -0.038499,
        "meta_mean_motion_dot": -0.02034071,
        "meta_mean_motion_ddot": 0,
        "tle_line1": "1 66559U 25268C   25358.16668980 -.02034071  00000+0 -38499-1 0  9993",
        "tle_line2": "2 66559  42.9999  54.1867 0001138 263.4612  55.6224 15.50863566  6075"
      },
      "geometry": {
        "type": "Point",
        "coordinates": [
          -28.77060539262334,
          -42.634897010524725
        ]
      }
    },
    {
      "type": "Feature",
      "properties": {
        "norad_id": 66560,
        "name": "STARLINK-35411",
        "group": "last-30-days",
        "lat": -41.95786672798933,
        "lon": -22.42243127377564,
        "alt_km": 419.24223126277593,
        "timestamp": "2025-12-24T11:32:58.716507+00:00",
        "meta_object_name": "STARLINK-35411",
        "meta_object_id": "2025-268D",
        "meta_epoch": "2025-12-24T04:00:01.998720",
        "meta_mean_motion": 15.51393295,
        "meta_eccentricity": 0.0001181,
        "meta_inclination": 43.0001,
        "meta_ra_of_asc_node": 54.1762,
        "meta_arg_of_pericenter": 264.1989,
        "meta_mean_anomaly": 59.0411,
        "meta_ephemeris_type": 0,
        "meta_classification_type": "U",
        "meta_norad_cat_id": 66560,
        "meta_element_set_no": 999,
        "meta_rev_at_epoch": 607,
        "meta_bstar": -0.03777,
        "meta_mean_motion_dot": -0.02034122,
        "meta_mean_motion_ddot": 0,
        "tle_line1": "1 66560U 25268D   25358.16668980 -.02034122  00000+0 -37770-1 0  9993",
        "tle_line2": "2 66560  43.0001  54.1762 0001181 264.1989  59.0411 15.51393295  6074"
      },
      "geometry": {
        "type": "Point",
        "coordinates": [
          -22.42243127377564,
          -41.95786672798933
        ]
      }
    }
  ]
}